ONEWEB-0620             
1 55161U 23004X   24218.87620653  .00000010  00000+0 -75020-5 0  9991
2 55161  87.8995 156.5341 0002234  91.5946 268.5438 13.11418844 76662
ONEWEB-0621             
1 55162U 23004Y   24218.90333504  .00000451  00000+0  12360-2 0  9995
2 55162  87.8991 156.4964 0002314  74.6654 285.4730 13.11417077 76644
ONEWEB-0622             
1 55163U 23004Z   24218.90842573  .00000324  00000+0  87882-3 0  9998
2 55163  87.8993 156.5122 0002767  92.5906 267.5539 13.11414493 76631
ONEWEB-0623             
1 55164U 23004AA  24218.85817203  .00000159  00000+0  37633-3 0  9990
2 55164  87.9192 141.3718 0002863  85.6398 274.5060 13.17649829 77998
ONEWEB-0624             
1 55165U 23004AB  24218.77806888 -.00000438  00000+0 -12521-2 0  9999
2 55165  87.8951 126.1586 0002126  78.2374 281.8993 13.12441066 78804
ONEWEB-0625             
1 55166U 23004AC  24218.84685835  .00000090  00000+0  19866-3 0  9997
2 55166  87.9190 141.3725 0002046  69.3438 290.7913 13.17647642 77980
ONEWEB-0626             
1 55167U 23004AD  24218.83716283 -.00000070  00000+0 -21360-3 0  9991
2 55167  87.9189 141.3747 0001773  92.3878 267.7456 13.17648551 77989
ONEWEB-0627             
1 55168U 23004AE  24218.82585968 -.00000145  00000+0 -40699-3 0  9994
2 55168  87.9190 141.3783 0002609  88.1980 271.9450 13.17650195 77986
